PROGRESS-M 22M          
1 39506U 14005A   14037.59176049  .00010134  00000-0  18484-3 0    65
2 39506  51.6497  26.9609 0004186 109.8420 356.3065 15.50072764   142
ABS-2                   
1 39508U 14006A   14059.69694563 -.00000112  00000-0  00000+0 0   224
2 39508   0.0584 281.1761 0001224  76.1833 126.6454  1.00272649   297
ATHENA-FIDUS            
1 39509U 14006B   14060.61221859  .00000126  00000-0  00000+0 0   115
2 39509   0.0514 273.6449 0000467  64.2822  79.5534  1.00274776   483
ARIANE 5 R/B            
1 39510U 14006C   14059.10588093  .00003374  00000-0  11966-2 0   210
2 39510   6.2453 275.4345 7277950 198.0913 106.7855  2.27922314   484
ARIANE 5 DEB [SYLDA]    
1 39511U 14006D   14059.86968871  .00032594  00000-0  11619-1 0   298
2 39511   5.9529 278.0840 7262202 195.8312 114.5529  2.29834333   509
TURKSAT 4A              
1 39522U 14007A   14060.10747997  .00000086  00000-0  10000-3 0   177
2 39522   0.0268  96.2375 0002485 298.6218 212.6178  1.00276188   174
BREEZE-M R/B            
1 39523U 14007B   14056.08626823 -.00000107  00000-0  10000-3 0    90
2 39523  13.0806 111.6214 4655988   5.7505 358.1876  1.88496917   196
BREEZE-M DEB [TANK]     
1 39524U 14007C   14059.25077257  .00001334  00000-0  83486-3 0   117
2 39524  49.3860 104.7736 6182409   1.1128 359.9031  3.70707618   476
NAVSTAR 69 (USA 248)    
1 39533U 14008A   14059.79355544 -.00000075  00000-0  10000-3 0   153
2 39533  54.9851 333.0572 0003366 227.5624 132.4408  1.97465404   165
DELTA 4 R/B             
1 39534U 14008B   14053.70707372 -.00000067  00000-0  00000+0 0    43
2 39534  54.7324 333.0121 0224626  31.7368 286.7236  1.90806932    28
2014-009A               
1 39572U 14009A   14060.87351051  .00064061  00000-0  82319-3 0   120
2 39572  65.0127  52.6969 0012238 283.9608  76.0167 15.58639605   328
2014-009B               
1 39573U 14009B   14060.87082916  .00126303  00000-0  14839-2 0   132
2 39573  65.0119  52.6783 0006119 332.8179  27.2647 15.60801074   327
2014-009C               
1 39574U 14009C   14060.23330645  .00057725  00000-0  78972-3 0   105
2 39574  65.0209  54.8974 0013534 253.3290 106.6370 15.56980553   223
2014-009D               
1 39575U 14009D   14060.41870686  .01387613  00000-0  12201-1 0    81
2 39575  65.0052  54.1889 0007588 203.0559 157.0250 15.65887726   258
2014-009E               
1 39576U 14009E   14060.23085284  .00071309  00000-0  88173-3 0    99
2 39576  65.0152  54.8917 0006926 302.8433  57.2049 15.59682020   220
2014-009F               
1 39577U 14009F   14060.87113583  .00097025  00000-0  11575-2 0   144
2 39577  65.0140  52.6864 0006920 322.7443  37.3185 15.60509466   326
2014-009G               
1 39578U 14009G   14060.35832562  .00160311  00000-0  18885-2 0   109
2 39578  65.0126  54.4408 0005228 319.3305  40.7452 15.60613112   244
2014-009H               
1 39579U 14009H   14060.23128098  .00085996  00000-0  10782-2 0    78
2 39579  65.0098  54.8826 0009000 291.4950  68.5241 15.59229553   221
2014-009J               
1 39580U 14009J   14060.86227971  .00142430  00000-0  12813-2 0    95
2 39580  65.0188  52.5623 0013906 343.9994  16.0658 15.67428651   324
